[{"id":"51653","name":"ONEWEB-0473","tle1":"1 51653U 22012AH  26176.11913654  .00005768  00000+0  16491-1 0  9996","tle2":"2 51653  87.8847  34.6961 0002062  77.8954 282.2404 13.10318154210342"},{"id":"51654","name":"ONEWEB-0474","tle1":"1 51654U 22012AJ  26176.11061376  .00004634  00000+0  13237-1 0  9998","tle2":"2 51654  87.8825  34.6843 0001394  77.6846 282.4438 13.10349291210337"},{"id":"51655","name":"ONEWEB-0475","tle1":"1 51655U 22012AK  26176.27158188  .00000028  00000+0  37884-4 0  9994","tle2":"2 51655  87.9132   4.2640 0001285  77.4107 282.7168 13.17649026214754"},{"id":"54113","name":"ONEWEB-0490","tle1":"1 54113U 22138A   26175.64044938  .00000154  00000+0  35123-3 0  9995","tle2":"2 54113  87.9184 303.4824 0001762 104.1285 256.0043 13.19725859177818"},{"id":"54114","name":"ONEWEB-0492","tle1":"1 54114U 22138B   26175.81735456 -.00000002  00000+0 -37880-4 0  9994","tle2":"2 54114  87.9176 303.4481 0001940 107.5785 252.5560 13.19726689177849"},{"id":"54115","name":"ONEWEB-0495","tle1":"1 54115U 22138C   26175.64360927 -.00000005  00000+0 -44283-4 0  9991","tle2":"2 54115  87.9179 303.4852 0001498 117.5361 242.5924 13.19725013177803"},{"id":"54116","name":"ONEWEB-0497","tle1":"1 54116U 22138D   26176.26278065  .00000043  00000+0  75728-4 0  9990","tle2":"2 54116  87.9184 303.3545 0001815 102.5818 257.5518 13.19724982177878"},{"id":"54117","name":"ONEWEB-0499","tle1":"1 54117U 22138E   26175.63964878 -.00000004  00000+0 -42266-4 0  9995","tle2":"2 54117  87.9177 303.4872 0001645 102.1804 257.9513 13.19726768177803"},{"id":"54118","name":"ONEWEB-0500","tle1":"1 54118U 22138F   26175.64202944  .00000025  00000+0  29072-4 0  9997","tle2":"2 54118  87.9183 303.4814 0001947 100.5212 259.6140 13.19725028177811"},{"id":"54119","name":"ONEWEB-0501","tle1":"1 54119U 22138G   26175.36877716  .00000069  00000+0  14084-3 0  9996","tle2":"2 54119  87.9182 303.5354 0001554 109.3715 250.7586 13.19724410177753"},{"id":"54120","name":"ONEWEB-0502","tle1":"1 54120U 22138H   26175.58200350  .00000020  00000+0  17690-4 0  9990","tle2":"2 54120  87.9183 303.4818 0001656 100.7171 259.4148 13.19725099177804"},{"id":"54121","name":"ONEWEB-0503","tle1":"1 54121U 22138J   26175.64676780  .00000039  00000+0  64220-4 0  9993","tle2":"2 54121  87.9187 303.4751 0001837  91.6377 268.4966 13.19725586177801"},{"id":"54122","name":"ONEWEB-0504","tle1":"1 54122U 22138K   26175.63413456  .00000087  00000+0  18593-3 0  9996","tle2":"2 54122  87.9187 303.4825 0001647  99.9148 260.2171 13.19725412177817"},{"id":"54123","name":"ONEWEB-0505","tle1":"1 54123U 22138L   26175.63097029  .00000077  00000+0  16105-3 0  9997","tle2":"2 54123  87.9183 303.4840 0001469 107.4372 252.6921 13.19726504177795"},{"id":"54124","name":"ONEWEB-0506","tle1":"1 54124U 22138M   26175.60569844  .00000066  00000+0  13153-3 0  9992","tle2":"2 54124  87.9186 303.4862 0001595 106.1987 253.9322 13.19724641177789"},{"id":"54125","name":"ONEWEB-0507","tle1":"1 54125U 22138N   26175.62623667  .00000001  00000+0 -30447-4 0  9995","tle2":"2 54125  87.9175 303.4936 0001779 105.3075 254.8255 13.19725378177832"},{"id":"54126","name":"ONEWEB-0508","tle1":"1 54126U 22138P   26175.62307227  .00000136  00000+0  30809-3 0  9996","tle2":"2 54126  87.9175 303.4937 0001732 112.8138 247.3178 13.19725431177815"},{"id":"54127","name":"ONEWEB-0509","tle1":"1 54127U 22138Q   26176.28014759 -.00000050  00000+0 -15791-3 0  9995","tle2":"2 54127  87.9184 303.3530 0001789 103.1532 256.9801 13.19725190177874"},{"id":"54128","name":"ONEWEB-0510","tle1":"1 54128U 22138R   26176.23798856  .00000000  00000+0 -32359-4 0  9992","tle2":"2 54128  87.9188 272.8314 0002335  91.9826 268.1575 13.20772414180349"},{"id":"54129","name":"ONEWEB-0511","tle1":"1 54129U 22138S   26176.27698797  .00000007  00000+0 -14308-4 0  9991","tle2":"2 54129  87.9182 303.3562 0001675  93.4732 266.6592 13.19727009177906"},{"id":"54130","name":"ONEWEB-0512","tle1":"1 54130U 22138T   26175.81418974  .00000094  00000+0  20321-3 0  9995","tle2":"2 54130  87.9171 303.4526 0001567 101.4810 258.6499 13.19726341177819"},{"id":"54131","name":"ONEWEB-0513","tle1":"1 54131U 22138U   26175.58931190  .00000027  00000+0  35491-4 0  9991","tle2":"2 54131  87.9182 303.4407 0000941  92.8008 267.3232 13.20269537177696"},{"id":"54132","name":"ONEWEB-0514","tle1":"1 54132U 22138V   26176.28488971  .00000006  00000+0 -17980-4 0  9995","tle2":"2 54132  87.9183 303.3537 0002004  96.6408 263.4953 13.19725152177896"},{"id":"54133","name":"ONEWEB-0515","tle1":"1 54133U 22138W   26176.22453094  .00000083  00000+0  17189-3 0  9992","tle2":"2 54133  87.9201 272.8293 0002856 103.7242 256.4210 13.20770697180368"},{"id":"54134","name":"ONEWEB-0516","tle1":"1 54134U 22138X   26175.65307428 -.00000063  00000+0 -18928-3 0  9990","tle2":"2 54134  87.9173 303.4849 0001894 104.2870 255.8473 13.19725848177815"},{"id":"54135","name":"ONEWEB-0517","tle1":"1 54135U 22138Y   26175.63254951  .00000112  00000+0  24837-3 0  9990","tle2":"2 54135  87.9184 303.4821 0001851  90.4544 269.6801 13.19725277177819"},{"id":"54136","name":"ONEWEB-0518","tle1":"1 54136U 22138Z   26175.65150005 -.00000014  00000+0 -67178-4 0  9997","tle2":"2 54136  87.9178 303.4874 0001923 105.7630 254.3715 13.19728335177810"},{"id":"54137","name":"ONEWEB-0519","tle1":"1 54137U 22138AA  26176.28330762 -.00000006  00000+0 -46988-4 0  9995","tle2":"2 54137  87.9180 303.3533 0001873  93.5966 266.5381 13.19726576177904"},{"id":"54138","name":"ONEWEB-0520","tle1":"1 54138U 22138AB  26175.63571313  .00000072  00000+0  14631-3 0  9993","tle2":"2 54138  87.9186 303.4826 0001698 105.7675 254.3645 13.19725850177806"},{"id":"54139","name":"ONEWEB-0521","tle1":"1 54139U 22138AC  26175.82050856 -.00000018  00000+0 -78097-4 0  9998","tle2":"2 54139  87.9185 303.4343 0001911  92.8910 267.2441 13.19726193177770"}]