OBJECT_NAME,OBJECT_ID,EPOCH,MEAN_MOTION,ECCENTRICITY,INCLINATION,RA_OF_ASC_NODE,ARG_OF_PERICENTER,MEAN_ANOMALY,EPHEMERIS_TYPE,CLASSIFICATION_TYPE,NORAD_CAT_ID,ELEMENT_SET_NO,REV_AT_EPOCH,BSTAR,MEAN_MOTION_DOT,MEAN_MOTION_DDOT
ONEWEB-0473,2022-012AH,2026-06-25T02:51:33.397056,13.10318154,.00020628,87.8847,34.6961,77.8954,282.2404,0,U,51653,999,21034,.16491265E-1,.5768E-4,0
ONEWEB-0474,2022-012AJ,2026-06-25T02:39:17.028864,13.10349291,.00013941,87.8825,34.6843,77.6846,282.4438,0,U,51654,999,21033,.1323719E-1,.4634E-4,0
ONEWEB-0475,2022-012AK,2026-06-25T06:31:04.674432,13.17649026,.00012853,87.9132,4.2640,77.4107,282.7168,0,U,51655,999,21475,.37883995E-4,.28E-6,0
ONEWEB-0490,2022-138A,2026-06-24T15:22:14.826432,13.19725859,.00017628,87.9184,303.4824,104.1285,256.0043,0,U,54113,999,17781,.35123443E-3,.154E-5,0
ONEWEB-0492,2022-138B,2026-06-24T19:36:59.433984,13.19726689,.00019408,87.9176,303.4481,107.5785,252.5560,0,U,54114,999,17784,-.37880465E-4,-.2E-7,0
ONEWEB-0495,2022-138C,2026-06-24T15:26:47.840928,13.19725013,.00014986,87.9179,303.4852,117.5361,242.5924,0,U,54115,999,17780,-.44282716E-4,-.5E-7,0
ONEWEB-0497,2022-138D,2026-06-25T06:18:24.248160,13.19724982,.00018159,87.9184,303.3545,102.5818,257.5518,0,U,54116,999,17787,.75728087E-4,.43E-6,0
ONEWEB-0499,2022-138E,2026-06-24T15:21:05.654592,13.19726768,.00016453,87.9177,303.4872,102.1804,257.9513,0,U,54117,999,17780,-.42266449E-4,-.4E-7,0
ONEWEB-0500,2022-138F,2026-06-24T15:24:31.343616,13.19725028,.00019471,87.9183,303.4814,100.5212,259.6140,0,U,54118,999,17781,.29071858E-4,.25E-6,0
ONEWEB-0501,2022-138G,2026-06-24T08:51:02.346624,13.19724410,.00015544,87.9182,303.5354,109.3715,250.7586,0,U,54119,999,17775,.14084109E-3,.69E-6,0
ONEWEB-0502,2022-138H,2026-06-24T13:58:05.102400,13.19725099,.0001656,87.9183,303.4818,100.7171,259.4148,0,U,54120,999,17780,.17689933E-4,.2E-6,0
ONEWEB-0503,2022-138J,2026-06-24T15:31:20.737920,13.19725586,.00018371,87.9187,303.4751,91.6377,268.4966,0,U,54121,999,17780,.6422039E-4,.39E-6,0
ONEWEB-0504,2022-138K,2026-06-24T15:13:09.225984,13.19725412,.00016472,87.9187,303.4825,99.9148,260.2171,0,U,54122,999,17781,.1859327E-3,.87E-6,0
ONEWEB-0505,2022-138L,2026-06-24T15:08:35.833056,13.19726504,.00014697,87.9183,303.4840,107.4372,252.6921,0,U,54123,999,17779,.16105332E-3,.77E-6,0
ONEWEB-0506,2022-138M,2026-06-24T14:32:12.345216,13.19724641,.00015956,87.9186,303.4862,106.1987,253.9322,0,U,54124,999,17778,.13153321E-3,.66E-6,0
ONEWEB-0507,2022-138N,2026-06-24T15:01:46.848288,13.19725378,.00017791,87.9175,303.4936,105.3075,254.8255,0,U,54125,999,17783,-.3044746E-4,.1E-7,0
ONEWEB-0508,2022-138P,2026-06-24T14:57:13.444128,13.19725431,.00017329,87.9175,303.4937,112.8138,247.3178,0,U,54126,999,17781,.3080945E-3,.136E-5,0
ONEWEB-0509,2022-138Q,2026-06-25T06:43:24.751776,13.19725190,.00017895,87.9184,303.3530,103.1532,256.9801,0,U,54127,999,17787,-.15791472E-3,-.5E-6,0
ONEWEB-0510,2022-138R,2026-06-25T05:42:42.211584,13.20772414,.00023359,87.9188,272.8314,91.9826,268.1575,0,U,54128,999,18034,-.32359309E-4,0,0
ONEWEB-0511,2022-138S,2026-06-25T06:38:51.760608,13.19727009,.00016751,87.9182,303.3562,93.4732,266.6592,0,U,54129,999,17790,-.1430782E-4,.7E-7,0
ONEWEB-0512,2022-138T,2026-06-24T19:32:25.993536,13.19726341,.00015679,87.9171,303.4526,101.4810,258.6499,0,U,54130,999,17781,.20321195E-3,.94E-6,0
ONEWEB-0513,2022-138U,2026-06-24T14:08:36.548160,13.20269537,.00009412,87.9182,303.4407,92.8008,267.3232,0,U,54131,999,17769,.35491486E-4,.27E-6,0
ONEWEB-0514,2022-138V,2026-06-25T06:50:14.470944,13.19725152,.00020042,87.9183,303.3537,96.6408,263.4953,0,U,54132,999,17789,-.1798025E-4,.6E-7,0
ONEWEB-0515,2022-138W,2026-06-25T05:23:19.473216,13.20770697,.00028569,87.9201,272.8293,103.7242,256.4210,0,U,54133,999,18036,.17188957E-3,.83E-6,0
ONEWEB-0516,2022-138X,2026-06-24T15:40:25.617792,13.19725848,.00018946,87.9173,303.4849,104.2870,255.8473,0,U,54134,999,17781,-.18928284E-3,-.63E-6,0
ONEWEB-0517,2022-138Y,2026-06-24T15:10:52.277664,13.19725277,.00018514,87.9184,303.4821,90.4544,269.6801,0,U,54135,999,17781,.24837056E-3,.112E-5,0
ONEWEB-0518,2022-138Z,2026-06-24T15:38:09.604320,13.19728335,.00019234,87.9178,303.4874,105.7630,254.3715,0,U,54136,999,17781,-.67178094E-4,-.14E-6,0
ONEWEB-0519,2022-138AA,2026-06-25T06:47:57.778368,13.19726576,.00018738,87.9180,303.3533,93.5966,266.5381,0,U,54137,999,17790,-.46988458E-4,-.6E-7,0
ONEWEB-0520,2022-138AB,2026-06-24T15:15:25.614432,13.19725850,.0001698,87.9186,303.4826,105.7675,254.3645,0,U,54138,999,17780,.14631223E-3,.72E-6,0
ONEWEB-0521,2022-138AC,2026-06-24T19:41:31.939584,13.19726193,.00019114,87.9185,303.4343,92.8910,267.2441,0,U,54139,999,17777,-.78097118E-4,-.18E-6,0
